SENTINEL-6A             
1 46984U 20086A   25336.02184356 -.00000034  00000+0  11631-3 0  9997
2 46984  66.0388 184.5694 0007731 269.1438  90.8692 12.80929960235079
